{"type": "FeatureCollection", "features": [ {"type": "Feature", "properties": {"norad_id": 38552, "name": "METEOSAT-10 (MSG-3)", "group": "weather", "lat": -4.045623416266483, "lon": -47.25397792763955, "alt_km": 35781.97960937274, "timestamp": "2025-12-26T14:28:47.332451+00:00", "meta": {"OBJECT_NAME": "METEOSAT-10 (MSG-3)", "OBJECT_ID": "2012-035B", "EPOCH": "2025-12-25T19:55:02.807904", "MEAN_MOTION": 1.00266624, "ECCENTRICITY": 0.0001479, "INCLINATION": 4.2575, "RA_OF_ASC_NODE": 61.6862, "ARG_OF_PERICENTER": 265.3349, "MEAN_ANOMALY": 66.5982, "EPHEMERIS_TYPE": 0, "CLASSIFICATION_TYPE": "U", "NORAD_CAT_ID": 38552, "ELEMENT_SET_NO": 999, "REV_AT_EPOCH": 4911, "BSTAR": 0, "MEAN_MOTION_DOT": 1.4e-07, "MEAN_MOTION_DDOT": 0}, "tle": {"line1": "1 38552U 12035B   25359.82989361  .00000014  00000+0  00000+0 0  9997", "line2": "2 38552   4.2575  61.6862 0001479 265.3349  66.5982  1.00266624 49118"}}, "geometry": {"type": "Point", "coordinates": [-47.25397792763955, -4.045623416266483]}}, {"type": "Feature", "properties": {"norad_id": 38771, "name": "METOP-B", "group": "weather", "lat": 67.11938077119753, "lon": 29.109206034526345, "alt_km": 812.3705298395107, "timestamp": "2025-12-26T14:28:47.332463+00:00", "meta": {"OBJECT_NAME": "METOP-B", "OBJECT_ID": "2012-049A", "EPOCH": "2025-12-26T05:42:37.873440", "MEAN_MOTION": 14.21413386, "ECCENTRICITY": 0.00032953, "INCLINATION": 98.678, "RA_OF_ASC_NODE": 49.9667, "ARG_OF_PERICENTER": 116.1865, "MEAN_ANOMALY": 243.9652, "EPHEMERIS_TYPE": 0, "CLASSIFICATION_TYPE": "U", "NORAD_CAT_ID": 38771, "ELEMENT_SET_NO": 999, "REV_AT_EPOCH": 68869, "BSTAR": 8.1607714e-05, "MEAN_MOTION_DOT": 1.35e-06, "MEAN_MOTION_DDOT": 0}, "tle": {"line1": "1 38771U 12049A   25360.23793835  .00000135  00000+0  81608-4 0  9993", "line2": "2 38771  98.6780  49.9667 0003295 116.1865 243.9652 14.21413386688695"}}, "geometry": {"type": "Point", "coordinates": [29.109206034526345, 67.11938077119753]}}, {"type": "Feature", "properties": {"norad_id": 39216, "name": "INSAT-3D", "group": "weather", "lat": -0.05346197239187183, "lon": 82.08312402107212, "alt_km": 35793.401014026334, "timestamp": "2025-12-26T14:28:47.332475+00:00", "meta": {"OBJECT_NAME": "INSAT-3D", "OBJECT_ID": "2013-038B", "EPOCH": "2025-12-26T00:52:38.586144", "MEAN_MOTION": 1.00273672, "ECCENTRICITY": 0.0001945, "INCLINATION": 1.4773, "RA_OF_ASC_NODE": 84.8465, "ARG_OF_PERICENTER": 157.8171, "MEAN_ANOMALY": 354.8337, "EPHEMERIS_TYPE": 0, "CLASSIFICATION_TYPE": "U", "NORAD_CAT_ID": 39216, "ELEMENT_SET_NO": 999, "REV_AT_EPOCH": 4534, "BSTAR": 0, "MEAN_MOTION_DOT": -3.17e-06, "MEAN_MOTION_DDOT": 0}, "tle": {"line1": "1 39216U 13038B   25360.03655771 -.00000317  00000+0  00000+0 0  9996", "line2": "2 39216   1.4773  84.8465 0001945 157.8171 354.8337  1.00273672 45346"}}, "geometry": {"type": "Point", "coordinates": [82.08312402107212, -0.05346197239187183]}}, {"type": "Feature", "properties": {"norad_id": 39260, "name": "FENGYUN 3C", "group": "weather", "lat": 30.248537422710474, "lon": -27.38299899316466, "alt_km": 844.5887846916839, "timestamp": "2025-12-26T14:28:47.332487+00:00", "meta": {"OBJECT_NAME": "FENGYUN 3C", "OBJECT_ID": "2013-052A", "EPOCH": "2025-12-26T05:51:14.906592", "MEAN_MOTION": 14.1570031, "ECCENTRICITY": 0.00150404, "INCLINATION": 98.478, "RA_OF_ASC_NODE": 337.2649, "ARG_OF_PERICENTER": 157.1797, "MEAN_ANOMALY": 203.0049, "EPHEMERIS_TYPE": 0, "CLASSIFICATION_TYPE": "U", "NORAD_CAT_ID": 39260, "ELEMENT_SET_NO": 999, "REV_AT_EPOCH": 63409, "BSTAR": 7.2320843e-05, "MEAN_MOTION_DOT": 1.01e-06, "MEAN_MOTION_DDOT": 0}, "tle": {"line1": "1 39260U 13052A   25360.24392253  .00000101  00000+0  72321-4 0  9997", "line2": "2 39260  98.4780 337.2649 0015040 157.1797 203.0049 14.15700310634091"}}, "geometry": {"type": "Point", "coordinates": [-27.38299899316466, 30.248537422710474]}}, {"type": "Feature", "properties": {"norad_id": 40069, "name": "METEOR-M 2", "group": "weather", "lat": -62.8743339635435, "lon": -5.386300986201519, "alt_km": 830.384679888095, "timestamp": "2025-12-26T14:28:47.332498+00:00", "meta": {"OBJECT_NAME": "METEOR-M 2", "OBJECT_ID": "2014-037A", "EPOCH": "2025-12-26T06:20:03.140736", "MEAN_MOTION": 14.2139291, "ECCENTRICITY": 0.00056726, "INCLINATION": 98.4922, "RA_OF_ASC_NODE": 337.3308, "ARG_OF_PERICENTER": 167.7908, "MEAN_ANOMALY": 192.3408, "EPHEMERIS_TYPE": 0, "CLASSIFICATION_TYPE": "U", "NORAD_CAT_ID": 40069, "ELEMENT_SET_NO": 999, "REV_AT_EPOCH": 59475, "BSTAR": 0.00024061719, "MEAN_MOTION_DOT": 4.84e-06, "MEAN_MOTION_DDOT": 0}, "tle": {"line1": "1 40069U 14037A   25360.26392524  .00000484  00000+0  24062-3 0  9995", "line2": "2 40069  98.4922 337.3308 0005672 167.7908 192.3408 14.21392910594759"}}, "geometry": {"type": "Point", "coordinates": [-5.386300986201519, -62.8743339635435]}}, {"type": "Feature", "properties": {"norad_id": 40267, "name": "HIMAWARI-8", "group": "weather", "lat": -0.017672156330097253, "lon": 93.20681597888408, "alt_km": 35790.04054342847, "timestamp": "2025-12-26T14:28:47.332510+00:00", "meta": {"OBJECT_NAME": "HIMAWARI-8", "OBJECT_ID": "2014-060A", "EPOCH": "2025-12-26T05:08:26.429856", "MEAN_MOTION": 1.00270696, "ECCENTRICITY": 0.00010059, "INCLINATION": 0.0429, "RA_OF_ASC_NODE": 196.758, "ARG_OF_PERICENTER": 108.4721, "MEAN_ANOMALY": 7.5087, "EPHEMERIS_TYPE": 0, "CLASSIFICATION_TYPE": "U", "NORAD_CAT_ID": 40267, "ELEMENT_SET_NO": 999, "REV_AT_EPOCH": 4102, "BSTAR": 0, "MEAN_MOTION_DOT": -2.54e-06, "MEAN_MOTION_DDOT": 0}, "tle": {"line1": "1 40267U 14060A   25360.21419479 -.00000254  00000+0  00000+0 0  9993", "line2": "2 40267   0.0429 196.7580 0001005 108.4721   7.5087  1.00270696 41026"}}, "geometry": {"type": "Point", "coordinates": [93.20681597888408, -0.017672156330097253]}}, {"type": "Feature", "properties": {"norad_id": 40367, "name": "FENGYUN 2G", "group": "weather", "lat": -2.0285930883230248, "lon": 51.91746745025569, "alt_km": 35790.69842071767, "timestamp": "2025-12-26T14:28:47.332523+00:00", "meta": {"OBJECT_NAME": "FENGYUN 2G", "OBJECT_ID": "2014-090A", "EPOCH": "2025-12-26T01:31:24.188160", "MEAN_MOTION": 1.0028183, "ECCENTRICITY": 0.00017333, "INCLINATION": 5.1989, "RA_OF_ASC_NODE": 74.9322, "ARG_OF_PERICENTER": 171.0452, "MEAN_ANOMALY": 330.9574, "EPHEMERIS_TYPE": 0, "CLASSIFICATION_TYPE": "U", "NORAD_CAT_ID": 40367, "ELEMENT_SET_NO": 999, "REV_AT_EPOCH": 4026, "BSTAR": 0, "MEAN_MOTION_DOT": -2.82e-06, "MEAN_MOTION_DDOT": 0}, "tle": {"line1": "1 40367U 14090A   25360.06347440 -.00000282  00000+0  00000+0 0  9999", "line2": "2 40367   5.1989  74.9322 0001733 171.0452 330.9574  1.00281830 40261"}}, "geometry": {"type": "Point", "coordinates": [51.91746745025569, -2.0285930883230248]}}, {"type": "Feature", "properties": {"norad_id": 40732, "name": "METEOSAT-11 (MSG-4)", "group": "weather", "lat": -2.6150461603422817, "lon": -38.29229725085909, "alt_km": 35787.55927606136, "timestamp": "2025-12-26T14:28:47.332535+00:00", "meta": {"OBJECT_NAME": "METEOSAT-11 (MSG-4)", "OBJECT_ID": "2015-034A", "EPOCH": "2025-12-25T16:31:52.264704", "MEAN_MOTION": 1.00271545, "ECCENTRICITY": 6.999e-05, "INCLINATION": 2.7688, "RA_OF_ASC_NODE": 71.966, "ARG_OF_PERICENTER": 136.703, "MEAN_ANOMALY": 142.9271, "EPHEMERIS_TYPE": 0, "CLASSIFICATION_TYPE": "U", "NORAD_CAT_ID": 40732, "ELEMENT_SET_NO": 999, "REV_AT_EPOCH": 547, "BSTAR": 0, "MEAN_MOTION_DOT": 8.2e-07, "MEAN_MOTION_DDOT": 0}, "tle": {"line1": "1 40732U 15034A   25359.68879936  .00000082  00000+0  00000+0 0  9997", "line2": "2 40732   2.7688  71.9660 0000699 136.7030 142.9271  1.00271545  5479"}}, "geometry": {"type": "Point", "coordinates": [-38.29229725085909, -2.6150461603422817]}}, {"type": "Feature", "properties": {"norad_id": 41105, "name": "ELEKTRO-L 2", "group": "weather", "lat": -4.470980324087314, "lon": -62.08768736056651, "alt_km": 35772.08991858741, "timestamp": "2025-12-26T14:28:47.332548+00:00", "meta": {"OBJECT_NAME": "ELEKTRO-L 2", "OBJECT_ID": "2015-074A", "EPOCH": "2025-12-26T04:33:21.945312", "MEAN_MOTION": 1.00271693, "ECCENTRICITY": 0.000362, "INCLINATION": 6.2573, "RA_OF_ASC_NODE": 72.6685, "ARG_OF_PERICENTER": 207.9868, "MEAN_ANOMALY": 228.1548, "EPHEMERIS_TYPE": 0, "CLASSIFICATION_TYPE": "U", "NORAD_CAT_ID": 41105, "ELEMENT_SET_NO": 999, "REV_AT_EPOCH": 3677, "BSTAR": 0, "MEAN_MOTION_DOT": -9.7e-07, "MEAN_MOTION_DDOT": 0}, "tle": {"line1": "1 41105U 15074A   25360.18983733 -.00000097  00000+0  00000+0 0  9991", "line2": "2 41105   6.2573  72.6685 0003620 207.9868 228.1548  1.00271693 36773"}}, "geometry": {"type": "Point", "coordinates": [-62.08768736056651, -4.470980324087314]}}, {"type": "Feature", "properties": {"norad_id": 41752, "name": "INSAT-3DR", "group": "weather", "lat": -0.1014613003103444, "lon": 26.67363977456962, "alt_km": 35811.3664261441, "timestamp": "2025-12-26T14:28:47.332560+00:00", "meta": {"OBJECT_NAME": "INSAT-3DR", "OBJECT_ID": "2016-054A", "EPOCH": "2025-12-24T15:09:51.705216", "MEAN_MOTION": 1.00271379, "ECCENTRICITY": 0.00142635, "INCLINATION": 0.1198, "RA_OF_ASC_NODE": 86.2568, "ARG_OF_PERICENTER": 185.6475, "MEAN_ANOMALY": 122.9543, "EPHEMERIS_TYPE": 0, "CLASSIFICATION_TYPE": "U", "NORAD_CAT_ID": 41752, "ELEMENT_SET_NO": 999, "REV_AT_EPOCH": 3406, "BSTAR": 0, "MEAN_MOTION_DOT": -5.6e-07, "MEAN_MOTION_DDOT": 0}, "tle": {"line1": "1 41752U 16054A   25358.63184844 -.00000056  00000+0  00000+0 0  9996", "line2": "2 41752   0.1198  86.2568 0014263 185.6475 122.9543  1.00271379 34066"}}, "geometry": {"type": "Point", "coordinates": [26.67363977456962, -0.1014613003103444]}}]}